#dP2024  5 13  0  0  0.00000000      96 __u+U IGS20 FIT  IAC
## 2314  86400.00000000   900.00000000 60443 0.0000000000000
+  120   C06C07C08C09C10C11C12C13C14C16C19C20C21C22C23C24C25
+        C26C27C28C29C30C32C33C34C35C36C37C38C39C40C41C42C43
+        C44C45C46E02E03E04E05E07E08E09E10E11E12E13E14E15E18
+        E19E21E24E25E26E27E30E31E33E34E36G01G02G03G04G05G06
+        G07G08G09G10G11G12G13G14G15G16G17G18G19G20G21G22G23
+        G24G25G26G27G28G29G30G31G32J02J03J04R01R02R03R04R05
+        R07R08R09R11R12R13R14R15R16R17R18R19R20R21R22R24R25
+        R26  0  0  0  0  0  0  0  0  0  0  0  0  0  0  0  0
++         0  0  0  0  0  0  0  0  0  0  0  0  0  0  0  0  0
++         0  0  0  0  0  0  0  0  0  0  0  0  0  0  0  0  0
++         0  0  0  0  0  0  0  0  0  0  0  0  0  0  0  0  0
++         0  0  0  0  0  0  0  0  0  0  0  0  7  6  7  7  6
++         7  8  5  8  8  7  7  5  7  6  7  6  6  7  6  7  6
++         8  7  6  8  6  6  7  5  5  0  0  0  8  6  6  6  7
++         7  7  7  6  7  8  7  6  6  8  7  7  6  6  6  6  7
++         8  0  0  0  0  0  0  0  0  0  0  0  0  0  0  0  0
%c M  cc GPS ccc cccc cccc cccc cccc ccccc ccccc ccccc ccccc
%c cc cc ccc ccc cccc cccc cccc cccc ccccc ccccc ccccc ccccc
%f  0.0000000  0.000000000  0.00000000000  0.000000000000000
%f  0.0000000  0.000000000  0.00000000000  0.000000000000000
%i    0    0    0    0      0      0      0      0         0
%i    0    0    0    0      0      0      0      0         0
/* INFORMATION & ANALYSIS CENTER (IAC)      ULTRA-RAPID DATA
/* S/V CLOCKS ARE ALIGNED TO GNSS TIME                      
/* G:C1WC2W R:C1PC2P E:C1XC5X C:C2IC6I J:C1CC2S             
/* PCV:IGS20_2290 OL/AL:FES2004  NONE     YN ORB:CoN CLK:CoN
*  2024 05 13 15 15  0.00000000
PC06  -1682.354493  37084.766173  20338.261605 999999.999999
PC07 -12641.459470  26320.515577 -30391.657528 999999.999999
PC08 -18796.530231  35738.949313  11771.364072 999999.999999
PC09   2328.710840  40093.779704  14330.406114 999999.999999
PC10  -3152.592815  27380.989861 -31613.305257 999999.999999
PC11  -4254.754767 -22143.321082  16509.082032 999999.999999
PC12  12341.427478  -9437.781453  23212.125121 999999.999999
PC13 -12374.704547  36068.872118  17849.979133 999999.999999
PC14   4620.145720 -16334.601294 -22121.913546 999999.999999
PC16  -4636.029598  34759.951913  23963.426575 999999.999999
PC19   6284.709401  14505.383990  23019.396000 999999.999999
PC20 -13312.174577  15801.122870  18790.255535 999999.999999
PC21  26710.661630  -7548.390099  -2672.552264 999999.999999
PC22  23484.474122   4813.289610  14252.884808 999999.999999
PC23 -13314.784202 -10709.880586  22069.998404 999999.999999
PC24  11709.831398 -24859.089911  -4938.709492 999999.999999
PC25  -1830.954200 -25014.098599  12245.146685 999999.999999
PC26  17433.098568 -10712.321345 -19005.530482 999999.999999
PC27 -18443.381921   1374.798957 -20918.314026 999999.999999
PC28 -21950.310258 -13989.706656 -10061.926805 999999.999999
PC29  12736.846672  22907.082708  -9592.420967 999999.999999
PC30  -4986.081367  16850.417739 -21695.444674 999999.999999
PC32 -26697.994787   7744.820121   2619.696525 999999.999999
PC33  -6344.416496 -14489.816199 -22987.251908 999999.999999
PC34   3520.945430 -17879.405136  21111.886316 999999.999999
PC35  22471.112303  13401.702019   9739.184452 999999.999999
PC36   1201.788389  25067.572930 -12172.069191 999999.999999
PC37 -17667.640090  10055.950576  19120.372598 999999.999999
PC38 -21691.664498  35816.850460   4434.949460 999999.999999
PC39  -6167.581908  31743.459196  27259.485511 999999.999999
PC40 -17790.601411  19663.892916 -32866.796015 999999.999999
PC41 -23023.786607  -5239.093660 -14837.692327 999999.999999
PC42  14915.721360 -15518.300537 -17694.969857 999999.999999
PC43 -11942.179769 -22978.595696  10356.240740 999999.999999
PC44  18583.109627  -1967.035428  20714.862531 999999.999999
PC45  13109.019216  10824.589095 -22125.667911 999999.999999
PC46 -11344.358176  25118.037161   4246.793934 999999.999999
PE02  -7111.503441 -15563.981422  24147.824958 999999.999999
PE03 -18215.381836 -18222.817320 -14583.604857 999999.999999
PE04  28135.818897   8362.899233  -3778.052419 999999.999999
PE05   2197.619958 -17177.339522 -23997.229435 999999.999999
PE07 -21741.943623   5819.039228  19244.411447 999999.999999
PE08 -28069.434805  -8935.328991   3008.160817 999999.999999
PE09  21748.134812  -5645.793102 -19252.033592 999999.999999
PE10  15825.624792  -2285.003077  24899.066011 999999.999999
PE11  12787.877102 -14099.040893  22647.912728 999999.999999
PE12  16321.965908   8648.273526  23126.631461 999999.999999
PE13 -12951.238494  13498.905325 -22944.242803 999999.999999
PE14   4457.142216  19447.343514 -19065.269947 999999.999999
PE15 -16217.837042  -9233.932453 -22971.804033 999999.999999
PE18 -22165.189600 -18264.834257   9100.945101 999999.999999
PE19  16323.423199  18652.518458  16190.176138 999999.999999
PE21 -11665.476426  22507.657028 -15285.436104 999999.999999
PE24  24538.465372 -16265.780419  -3178.098021 999999.999999
PE25  12036.411930 -22522.099872  14971.130641 999999.999999
PE26  -1863.117392  28159.517986  -8939.265999 999999.999999
PE27 -24382.389485  16529.210278   2883.384704 999999.999999
PE30 -22535.146709    674.080593  19164.754496 999999.999999
PE31  22572.107444   -887.021299 -19123.323599 999999.999999
PE33   9653.018816  26476.587493   9053.398546 999999.999999
PE34  -9979.370120 -26188.290016  -9539.604099 999999.999999
PE36   2184.854964 -27933.915595   9521.110112 999999.999999
PG01   1726.475410  17239.582493 -20417.507144 999999.999999
PG02  15413.883470  -1295.570075  22091.235094   -436.897934
PG03  22329.487653 -11327.270968   8519.724820    361.327019
PG04  23008.966920   -750.432915 -13346.565629    360.201526
PG05 -18173.739400  -1329.657512 -19532.237666   -172.566235
PG06  -5152.744682 -25955.156032  -1338.035403    275.115801
PG07   7064.622612 -20338.723161 -14723.124827   -128.021762
PG08  25916.665974   5699.736622   3581.365852    176.072144
PG09  13093.291558 -10829.639192 -20506.468050    194.918639
PG10  -4357.675356  19202.501120  17873.483006    -22.500699
PG11 -11912.370919 -19582.654647 -13441.166101   -661.163870
PG12 -23067.266635   8584.965923   9629.518916   -505.007052
PG13 -22474.502113 -14141.411622  -2880.298467    650.190002
PG14   8260.018537 -20338.505503  14835.956125    399.780223
PG15 -26273.693355  -2893.214747   3018.976996    158.608255
PG16  15979.522132   6365.210422 -20687.954223   -292.659758
PG17   -471.418205 -16220.513038  21417.283673    706.610079
PG18  -6757.007693  20951.952522 -14703.590304   -609.984619
PG19 -10765.324483 -17841.953632  16510.601917    481.510022
PG20 -10937.060284 -10807.277780 -21601.556715    376.725583
PG21  16519.074364   5377.217760  20790.144432    121.850834
PG22   1197.854430 -17930.144934  20071.336335    -13.064088
PG23 -14761.435896  20437.793330   8058.899881    224.459136
PG24 -16189.051323  -1095.812002  20667.000281   -469.231313
PG25 -20512.809256  16545.311507   1462.030694    495.646679
PG26   5523.467571  16011.523258 -20534.723254    153.432588
PG27  22167.527938  13256.877822  -7370.366060    -23.784865
PG28   4667.067614  26117.910312   1250.337272   -242.370330
PG29 -16193.173362   7523.412347 -19752.917528   -598.576237
PG30   -301.194275 -25760.645670  -5701.227615   -390.997152
PG31  10359.367502  22366.878679  -9566.308157   -227.836393
PG32   4470.347796  16676.729904  20448.191988   -618.270196
PJ02 -35656.673485  21314.757202  -2831.246379 999999.999999
PJ03 -19708.256424  25513.671481 -22566.080531 999999.999999
PJ04 -28533.874523  28991.029263  17251.081600 999999.999999
PR01 -22994.471067   5843.794392   9400.259613     85.254851
PR02  -9196.816133  10220.129262  21520.587638    -22.938372
PR03  10121.942608   9712.254946  21368.740770    100.086605
PR04  23288.527641   3971.697189   9664.967847    236.228860
PR05  24159.017828  -3809.286560  -7262.657158    131.445871
PR07 -10899.119023  -9504.124358 -20955.274725     82.307861
PR08 -23443.326877  -3648.351775  -9266.497070    -75.418129
PR09  10185.753967 -23219.883458   2361.075190    186.343903
PR11  -9795.349142  -4872.753847  23054.145435     24.854295
PR12 -15402.933062  14009.137149  14754.680569     40.094060
PR13 -11752.633163  22637.886040    220.997996    -47.325197
PR14    -22.338172  18533.351247 -17524.180849     26.488273
PR15  10653.033433   3419.056412 -22902.178922     79.852034
PR16  15230.436144 -13931.619231 -14950.035340     25.555756
PR17  11923.980046  22302.820582  -3171.372775     86.431686
PR18  15878.657248  15233.036034  12956.981685    141.860989
PR19  12548.470179   2292.137272  22082.624835   -276.472218
PR20    371.096826 -16935.060835  19056.371046   -112.723891
PR21 -11701.608716 -22437.275281   3305.933024   -100.511582
PR22 -15672.945097 -14638.841042 -13778.103927    112.213790
PR24    446.114981  17513.900242 -18523.738265    -55.652776
PR25 -11126.810570 -22782.508138   2891.681831    -35.582146
PR26 -22913.373051  -4070.686576 -10450.963005    -19.881556
EOF
